COSMO-SKYMED 1          
1 31598U 07023A   26160.51548060  .00001933  00000+0  17293-3 0  9992
2 31598  97.8855 352.3079 0001061  82.8013 277.3328 14.97064559 28641
COSMOS 2428             
1 31792U 07029A   26160.28533870 -.00000171  00000+0 -66117-4 0  9996
2 31792  70.9374  11.0694 0007215 150.1446 210.0088 14.12929724977037
SL-16 R/B               
1 31793U 07029B   26160.28471012  .00000315  00000+0  18810-3 0  9990
2 31793  70.9760 339.8411 0002222 258.8495 278.9960 14.14850685978324
KORONAS-FOTON           
1 33504U 09003A   26160.50390625  .00010084  00000+0  20861-3 0  9994
2 33504  82.4293 180.2734 0010872 173.1037 187.0363 15.45563938959910
CZ-2C R/B               
1 37731U 11030B   26160.48659808  .00001217  00000+0  15845-3 0  9995
2 37731  97.8652 116.0121 0053569  52.5644  63.7383 14.81452506803687
H-2A R/B                
1 38341U 12025E   26160.46356713  .00002807  00000+0  25375-3 0  9990
2 38341  98.4814 134.9723 0044203  14.2241 346.0211 14.95673290761930
SHIJIAN-16 (SJ-16)      
1 39358U 13057A   26160.53123010  .00000491  00000+0  50448-4 0  9992
2 39358  74.9734  11.1843 0016921 248.5146 111.4238 14.92592598685206
SL-4 R/B                
1 39679U 14021B   26160.54550696  .00009776  00000+0  20447-3 0  9995
2 39679  51.6055 248.2051 0091607  78.1861 282.9382 15.41791897670430
ALOS-2                  
1 39766U 14029A   26159.54979360  .00001451  00000+0  20114-3 0  9994
2 39766  97.9210 256.8376 0001671  90.6305 269.5098 14.79472067650306
YAOGAN-29               
1 41038U 15069A   26160.48643597  .00000171  00000+0  27678-4 0  9990
2 41038  98.0034 189.1072 0002886  66.1758 293.9757 14.83077952569487
ASTRO-H (HITOMI)        
1 41337U 16012A   26160.17061656  .00002073  00000+0  11712-3 0  9991
2 41337  30.9980 125.9593 0009628 173.7339 186.3421 15.10475751566076
HXMT (HUIYAN)           
1 42758U 17034A   26160.50391527  .00004001  00000+0  20027-3 0  9996
2 42758  43.0133 225.8227 0030188  96.4694 263.9593 15.18424330496498
SAOCOM 1A               
1 43641U 18076A   26160.50731924  .00000223  00000+0  34598-4 0  9995
2 43641  97.8890 347.3677 0001506  78.8144 281.3238 14.82169285414969
H-2A R/B                
1 43682U 18084L   26160.22688707  .00017164  00000+0  36412-3 0  9996
2 43682  98.8593  37.3792 0024185  66.9346 293.4445 15.44846396419894
SAOCOM 1B               
1 46265U 20059A   26160.53859663  .00000519  00000+0  71726-4 0  9990
2 46265  97.8892 346.4930 0001465  81.5569 278.5810 14.82164968312351
CSS (TIANHE)            
1 48274U 21035A   26160.48989295  .00022144  00000+0  26420-3 0  9994
2 48274  41.4694   8.8345 0008444  15.7709 344.3391 15.60486295291962
COSMOS 2550             
1 48865U 21056A   26159.80793882  .00006310  00000+0  19790-3 0  9991
2 48865  67.1416 125.2525 0008705 266.0377  93.9783 15.33755463277435
CZ-2C R/B               
1 52794U 22058K   26160.43551995  .00028951  00000+0  32951-3 0  9997
2 52794  50.1846 203.8374 0032977 235.4973 124.2885 15.61324142224435
CZ-2C R/B               
1 54039U 22132E   26160.50926296  .00056438  00000+0  45344-3 0  9993
2 54039  97.2906 167.1957 0016864 107.6570 252.6536 15.70623780204748
GSLV R/B                
1 54149U 22138AN  26160.43175269  .00001875  00000+0  15889-3 0  9995
2 54149  87.3797 135.5889 0021709 170.5161 189.6485 14.97222779197654
XRISM                   
1 57800U 23137A   26160.40309525  .00004454  00000+0  24466-3 0  9990
2 57800  31.0028  50.0204 0007940 246.6719 113.3085 15.12397601151689
ACS3                    
1 59588U 24077B   26160.38111272  .00018947  00000+0  14165-1 0  9991
2 59588  97.1672  80.9129 0054168  68.3507 292.3417 13.93922477106957
CZ-8A R/B               
1 66004U 25231K   26160.43579023 -.00000024  00000+0  50034-4 0  9999
2 66004  50.0044  72.2936 0116461 196.7286 162.9773 14.30152760 33839
SZ-21 MODULE            
1 66515U 25246C   26159.85148266  .00040731  00000+0  25860-3 0  9993
2 66515  41.4714 359.2138 0006700 299.9993  60.0186 15.75674541 32427
